[{"OBJECT_NAME":"STARLINK-34059","OBJECT_ID":"2025-094J","EPOCH":"2026-03-09T20:25:23.722464","MEAN_MOTION":14.98344933,"ECCENTRICITY":0.00034434,"INCLINATION":70.0018,"RA_OF_ASC_NODE":234.1973,"ARG_OF_PERICENTER":272.8074,"MEAN_ANOMALY":87.2691,"EPHEMERIS_TYPE":0,"CLASSIFICATION_TYPE":"U","NORAD_CAT_ID":63872,"ELEMENT_SET_NO":999,"REV_AT_EPOCH":4722,"BSTAR":0.0004846981,"MEAN_MOTION_DOT":5.697e-5,"MEAN_MOTION_DDOT":0},{"OBJECT_NAME":"OBJECT U","OBJECT_ID":"2017-042U","EPOCH":"2026-03-09T22:07:56.164512","MEAN_MOTION":15.00675308,"ECCENTRICITY":0.00148173,"INCLINATION":97.4238,"RA_OF_ASC_NODE":229.7372,"ARG_OF_PERICENTER":56.7191,"MEAN_ANOMALY":303.5451,"EPHEMERIS_TYPE":0,"CLASSIFICATION_TYPE":"U","NORAD_CAT_ID":42843,"ELEMENT_SET_NO":999,"REV_AT_EPOCH":47173,"BSTAR":0.00030670501,"MEAN_MOTION_DOT":3.834e-5,"MEAN_MOTION_DDOT":0}]
